[{"OBJECT_NAME":"STARLINK-5363","OBJECT_ID":"2023-015BA","EPOCH":"2026-03-09T22:00:01.999584","MEAN_MOTION":15.07334825,"ECCENTRICITY":0.00022891,"INCLINATION":43.0004,"RA_OF_ASC_NODE":337.3819,"ARG_OF_PERICENTER":248.6523,"MEAN_ANOMALY":64.4241,"EPHEMERIS_TYPE":0,"CLASSIFICATION_TYPE":"U","NORAD_CAT_ID":55497,"ELEMENT_SET_NO":999,"REV_AT_EPOCH":577,"BSTAR":0.0035883023,"MEAN_MOTION_DOT":0.00055361,"MEAN_MOTION_DDOT":0},{"OBJECT_NAME":"DELTA 1 DEB","OBJECT_ID":"1984-088G","EPOCH":"2026-03-08T09:15:52.675776","MEAN_MOTION":11.22084929,"ECCENTRICITY":0.17879711,"INCLINATION":28.736,"RA_OF_ASC_NODE":131.5031,"ARG_OF_PERICENTER":348.7228,"MEAN_ANOMALY":7.7805,"EPHEMERIS_TYPE":0,"CLASSIFICATION_TYPE":"U","NORAD_CAT_ID":19008,"ELEMENT_SET_NO":999,"REV_AT_EPOCH":55810,"BSTAR":0.0010315436,"MEAN_MOTION_DOT":1.852e-5,"MEAN_MOTION_DDOT":0}]
